NORAD_CAT_ID,OBJECT_NAME,OBJECT_TYPE,EPOCH,MEAN_MOTION,ECCENTRICITY,INCLINATION,RA_OF_ASC_NODE,ARG_OF_PERICENTER,MEAN_ANOMALY,BSTAR,MEAN_MOTION_DOT,MEAN_MOTION_DDOT,TLE_LINE0,TLE_LINE1,TLE_LINE2,SEMIMAJOR_AXIS,PERIOD,APOGEE,PERIGEE,DECAYED
55309.0,STARLINK-5315,PAYLOAD,2023-02-25 20:00:07,15.69931332,0.0005635,69.9995,324.03,284.5487,75.5084,8.1797e-05,9.641e-05,0.0,0 STARLINK-5315,1 55309U 23010AS  23056.83342539  .00009641  00000-0  81797-4 0  9997,2 55309  69.9995 324.0300 0005635 284.5487  75.5084 15.69931332  6681,6737.23,91.724,362.892,355.299,0.0
55309.0,STARLINK-5315,PAYLOAD,2023-02-26 02:07:08,15.69939543,0.0003425,70.0011,323.313,255.5344,104.5472,8.1157e-05,9.563e-05,0.0,0 STARLINK-5315,1 55309U 23010AS  23057.08829064  .00009563  00000-0  81157-4 0  9991,2 55309  70.0011 323.3130 0003425 255.5344 104.5472 15.69939543  6407,6737.207,91.723,361.379,356.764,0.0
55309.0,STARLINK-5315,PAYLOAD,2023-02-26 05:10:38,15.69957103,0.0003358,70.0019,322.9549,254.491,105.5915,0.00015687,0.00018717,0.0,0 STARLINK-5315,1 55309U 23010AS  23057.21572039  .00018717  00000-0  15687-3 0  9998,2 55309  70.0019 322.9549 0003358 254.4910 105.5915 15.69957103  6423,6737.157,91.722,361.284,356.759,0.0
55309.0,STARLINK-5315,PAYLOAD,2023-02-26 17:24:37,15.70003368,0.0003477,70.0015,321.5214,248.0538,112.0288,0.00041504,0.00050157,0.0,0 STARLINK-5315,1 55309U 23010AS  23057.72543755  .00050157  00000-0  41504-3 0  9998,2 55309  70.0015 321.5214 0003477 248.0538 112.0288 15.70003368  6502,6737.024,91.72,361.232,356.547,0.0
55309.0,STARLINK-5315,PAYLOAD,2023-02-26 23:31:38,15.69926525,0.0003726,70.001,320.8041,264.566,95.511,-5.739e-05,-7.109e-05,0.0,0 STARLINK-5315,1 55309U 23010AS  23057.98030599 -.00007109  00000-0 -57390-4 0  9995,2 55309  70.0010 320.8041 0003726 264.5660  95.5110 15.69926525  6543,6737.244,91.724,361.62,356.599,0.0
55309.0,STARLINK-5315,PAYLOAD,2023-02-27 02:35:08,15.69922687,0.0003937,70.0009,320.4461,262.2288,97.8461,0.00016976,0.0002025,0.0,0 STARLINK-5315,1 55309U 23010AS  23058.10774227  .00020250  00000-0  16976-3 0  9997,2 55309  70.0009 320.4461 0003937 262.2288  97.8461 15.69922687  6884,6737.255,91.724,361.773,356.468,0.0
55309.0,STARLINK-5315,PAYLOAD,2023-02-27 20:56:10,15.69933222,0.0003323,70.0004,318.2953,259.1913,100.8909,0.00018381,0.00021955,0.0,0 STARLINK-5315,1 55309U 23010AS  23058.87234911  .00021955  00000-0  18381-3 0  9997,2 55309  70.0004 318.2953 0003323 259.1913 100.8909 15.69933222  7003,6737.225,91.724,361.329,356.851,0.0
55309.0,STARLINK-5315,PAYLOAD,2023-02-28 18:20:44,15.69900652,0.0003759,70.0005,315.7874,270.7826,89.2939,4.2999e-05,4.956e-05,0.0,0 STARLINK-5315,1 55309U 23010AS  23059.76440199  .00004956  00000-0  42999-4 0  9998,2 55309  70.0005 315.7874 0003759 270.7826  89.2939 15.69900652  6826,6737.318,91.726,361.716,356.651,0.0
55309.0,STARLINK-5315,PAYLOAD,2023-02-28 19:52:29,15.69895001,0.000381,70.0006,315.608,271.5069,88.569,2.0881e-05,2.296e-05,0.0,0 STARLINK-5315,1 55309U 23010AS  23059.82812079  .00002296  00000-0  20881-4 0  9996,2 55309  70.0006 315.6080 0003810 271.5069  88.5690 15.69895001  7155,6737.334,91.726,361.766,356.632,0.0
55309.0,STARLINK-5315,PAYLOAD,2023-03-01 20:20:31,15.699472,0.0003365,70.0014,312.7421,254.6375,105.4449,0.00017549,0.00020961,0.0,0 STARLINK-5315,1 55309U 23010AS  23060.84758102  .00020961  00000-0  17549-3 0  9991,2 55309  70.0014 312.7421 0003365 254.6375 105.4449 15.69947200  7316,6737.185,91.723,361.317,356.783,0.0
55309.0,STARLINK-5315,PAYLOAD,2023-03-02 02:27:31,15.69940261,0.0003106,70.0004,312.0239,268.5073,91.5767,4.0276e-05,4.636e-05,0.0,0 STARLINK-5315,1 55309U 23010AS  23061.10244421  .00004636  00000-0  40276-4 0  9990,2 55309  70.0004 312.0239 0003106 268.5073  91.5767 15.69940261  7034,6737.205,91.723,361.162,356.977,0.0
55309.0,STARLINK-5315,PAYLOAD,2023-03-02 19:16:47,15.69944307,0.0003175,70.0017,310.0553,258.4797,101.6042,-2.5826e-05,-3.319e-05,0.0,0 STARLINK-5315,1 55309U 23010AS  23061.80332545 -.00003319  00000-0 -25826-4 0  9995,2 55309  70.0017 310.0553 0003175 258.4797 101.6042 15.69944307  7148,6737.193,91.723,361.197,356.919,0.0
55309.0,STARLINK-5315,PAYLOAD,2023-03-03 02:55:32,15.69923719,0.0002927,70.0021,309.1611,257.2199,102.867,-8.5658e-05,-0.00010498,0.0,0 STARLINK-5315,1 55309U 23010AS  23062.12190867 -.00010498  00000-0 -85658-4 0  9995,2 55309  70.0021 309.1611 0002927 257.2199 102.8670 15.69923719  7193,6737.252,91.724,361.089,357.145,0.0
55309.0,STARLINK-5315,PAYLOAD,2023-03-03 22:48:19,15.69945995,0.0003173,70.0014,306.8306,266.8895,93.1937,0.00016139,0.00019255,0.0,0 STARLINK-5315,1 55309U 23010AS  23062.95022354  .00019255  00000-0  16139-3 0  9996,2 55309  70.0014 306.8306 0003173 266.8895  93.1937 15.69945995  7641,6737.189,91.723,361.191,356.916,0.0
55309.0,STARLINK-5315,PAYLOAD,2023-03-04 01:51:50,15.69912381,0.0002674,70.001,306.4715,270.5619,89.527,2.2752e-05,2.523e-05,0.0,0 STARLINK-5315,1 55309U 23010AS  23063.07766286  .00002523  00000-0  22752-4 0  9998,2 55309  70.0010 306.4715 0002674 270.5619  89.5270 15.69912381  7347,6737.285,91.725,360.951,357.348,0.0
55309.0,STARLINK-5315,PAYLOAD,2023-03-04 17:09:21,15.69924271,0.000342,70.0029,304.6833,263.0753,97.0054,0.00014106,0.00016783,0.0,0 STARLINK-5315,1 55309U 23010AS  23063.71483167  .00016783  00000-0  14106-3 0  9999,2 55309  70.0029 304.6833 0003420 263.0753  97.0054 15.69924271  7765,6737.251,91.724,361.42,356.812,0.0
55309.0,STARLINK-5315,PAYLOAD,2023-03-04 18:41:06,15.69927296,0.0003323,70.0012,304.5019,264.5512,95.5304,0.0001817,0.00021694,0.0,0 STARLINK-5315,1 55309U 23010AS  23063.77854848  .00021694  00000-0  18170-3 0  9995,2 55309  70.0012 304.5019 0003323 264.5512  95.5304 15.69927296  7450,6737.242,91.724,361.346,356.868,0.0
55309.0,STARLINK-5315,PAYLOAD,2023-03-05 17:37:23,15.69946652,0.0003507,70.0002,301.8141,269.4017,90.6776,0.0001462,0.0001742,0.0,0 STARLINK-5315,1 55309U 23010AS  23064.73429561  .00017420  00000-0  14620-3 0  9990,2 55309  70.0002 301.8141 0003507 269.4017  90.6776 15.69946652  7606,6737.187,91.723,361.414,356.689,0.0
55309.0,STARLINK-5315,PAYLOAD,2023-03-05 22:12:38,15.69955772,0.0003687,70.0001,301.2774,277.0511,83.0266,0.00015755,0.000188,0.0,0 STARLINK-5315,1 55309U 23010AS  23064.92544254  .00018800  00000-0  15755-3 0  9991,2 55309  70.0001 301.2774 0003687 277.0511  83.0266 15.69955772  7955,6737.161,91.722,361.51,356.542,0.0
55309.0,STARLINK-5315,PAYLOAD,2023-03-06 01:16:08,15.69932396,0.0003265,69.999,300.9189,275.9951,84.0873,1.9352e-05,2.116e-05,0.0,0 STARLINK-5315,1 55309U 23010AS  23065.05287811  .00002116  00000-0  19352-4 0  9990,2 55309  69.9990 300.9189 0003265 275.9951  84.0873 15.69932396  7651,6737.227,91.724,361.292,356.893,0.0
55309.0,STARLINK-5315,PAYLOAD,2023-03-06 19:37:10,15.69937245,0.0003551,70.0007,298.7703,274.9254,85.1536,0.00012055,0.00014315,0.0,0 STARLINK-5315,1 55309U 23010AS  23065.81748398  .00014315  00000-0  12055-3 0  9992,2 55309  70.0007 298.7703 0003551 274.9254  85.1536 15.69937245  7771,6737.214,91.723,361.471,356.686,0.0
55309.0,STARLINK-5315,PAYLOAD,2023-03-07 15:29:57,15.69940167,0.0003237,70.0003,296.4415,277.2103,82.8725,0.00012851,0.00015278,0.0,0 STARLINK-5315,1 55309U 23010AS  23066.64579949  .00015278  00000-0  12851-3 0  9991,2 55309  70.0003 296.4415 0003237 277.2103  82.8725 15.69940167  7908,6737.205,91.723,361.251,356.889,0.0
55309.0,STARLINK-5315,PAYLOAD,2023-03-07 21:36:57,15.69935095,0.0003313,69.9998,295.725,268.8807,91.2009,5.1746e-05,6.016e-05,0.0,0 STARLINK-5315,1 55309U 23010AS  23066.90066449  .00006016  00000-0  51746-4 0  9993,2 55309  69.9998 295.7250 0003313 268.8807  91.2009 15.69935095  8262,6737.22,91.724,361.317,356.853,0.0
55309.0,STARLINK-5315,PAYLOAD,2023-03-08 00:40:27,15.69942815,0.0003822,70.0002,295.3665,272.3295,87.7463,9.4273e-05,0.00011147,0.0,0 STARLINK-5315,1 55309U 23010AS  23067.02809722  .00011147  00000-0  94273-4 0  9999,2 55309  70.0002 295.3665 0003822 272.3295  87.7463 15.69942815  7961,6737.198,91.723,361.638,356.488,0.0
55309.0,STARLINK-5315,PAYLOAD,2023-03-08 14:26:14,15.69923016,0.0003446,70.0011,293.7544,271.6406,88.4395,2.4307e-05,2.711e-05,0.0,0 STARLINK-5315,1 55309U 23010AS  23067.60155401  .00002711  00000-0  24307-4 0  9999,2 55309  70.0011 293.7544 0003446 271.6406  88.4395 15.69923016  8052,6737.254,91.724,361.441,356.798,0.0
55309.0,STARLINK-5315,PAYLOAD,2023-03-09 17:57:45,15.69936951,0.0003354,69.9999,290.5295,273.3102,86.771,4.7212e-05,5.471e-05,0.0,0 STARLINK-5315,1 55309U 23010AS  23068.74844802  .00005471  00000-0  47212-4 0  9991,2 55309  69.9999 290.5295 0003354 273.3102  86.7710 15.69936951  8236,6737.214,91.723,361.339,356.82,0.0
55309.0,STARLINK-5315,PAYLOAD,2023-03-10 07:43:31,15.69962324,0.0003066,70.0004,288.9172,295.0041,65.0836,0.00017709,0.00021167,0.0,0 STARLINK-5315,1 55309U 23010AS  23069.32189176  .00021167  00000-0  17709-3 0  9999,2 55309  70.0004 288.9172 0003066 295.0041  65.0836 15.69962324  8326,6737.142,91.722,361.072,356.941,0.0
55309.0,STARLINK-5315,PAYLOAD,2023-03-10 21:29:15,15.69990435,0.0003007,70.0001,287.306,283.179,76.907,0.00017523,0.00020966,0.0,0 STARLINK-5315,1 55309U 23010AS  23069.89531941  .00020966  00000-0  17523-3 0  9992,2 55309  70.0001 287.3060 0003007 283.1790  76.9070 15.69990435  8736,6737.061,91.72,360.952,356.901,0.0
55309.0,STARLINK-5315,PAYLOAD,2023-03-11 00:32:48,15.6992399,0.0003935,69.9994,286.9444,272.7369,87.3376,0.0001067,0.00012637,0.0,0 STARLINK-5315,1 55309U 23010AS  23070.02278436  .00012637  00000-0  10670-3 0  9998,2 55309  69.9994 286.9444 0003935 272.7369  87.3376 15.69923990  8435,6737.251,91.724,361.768,356.465,0.0
55309.0,STARLINK-5315,PAYLOAD,2023-03-11 03:36:18,15.69928438,0.0003866,69.9989,286.5882,266.4546,93.6207,8.1409e-05,9.59e-05,0.0,0 STARLINK-5315,1 55309U 23010AS  23070.15021661  .00009590  00000-0  81409-4 0  9991,2 55309  69.9989 286.5882 0003866 266.4546  93.6207 15.69928438  8773,6737.239,91.724,361.708,356.499,0.0
